OBJECT A                
1 44879U 19093A   20354.66795865  .00000325  00000-0  48181-4 0  9996
2 44879  97.9444  69.3000 0015839 151.8891 208.3183 14.81519202 54128
OBJECT B                
1 44880U 19093B   20354.73368848  .00000289  00000-0  43551-4 0  9998
2 44880  97.9443  69.3775 0015915 152.3658 207.8410 14.81505136 54128
CAS-6 (TIANQIN 1)       
1 44881U 19093C   20354.73449042  .00000080  00000-0  16984-4 0  9994
2 44881  97.9434  69.3695 0015424 151.1589 209.0491 14.81418682 54127
OBJECT D                
1 44882U 19093D   20354.84789437  .00000366  00000-0  53304-4 0  9996
2 44882  97.9481  69.7029 0017012 153.4531 206.7544 14.81616696 54142
CBERS 4A                
1 44883U 19093E   20354.71012000 -.00000373  00000-0 -40937-4 0  9996
2 44883  97.9451  69.4268 0001569 102.9505 257.2012 14.81504945 54135
OBJECT F                
1 44884U 19093F   20354.70160951  .00000334  00000-0  48878-4 0  9992
2 44884  97.9426  69.4839 0014371 158.2865 201.8963 14.81928059 54136
FLORIPASAT-1            
1 44885U 19093G   20354.71685896  .00000390  00000-0  55650-4 0  9992
2 44885  97.9439  69.6909 0015265 161.4389 198.7394 14.82156261 54143
OBJECT H                
1 44886U 19093H   20354.76726194  .00000281  00000-0  41626-4 0  9992
2 44886  97.9459  70.0126 0015529 166.5078 193.6538 14.82469212 54166
OBJECT J                
1 44887U 19093J   20354.77097374  .00000195  00000-0  30969-4 0  9997
2 44887  97.9454  69.9824 0015405 165.9668 194.1967 14.82429942 54163
CZ-4B R/B               
1 44888U 19093K   20354.51885345  .00001171  00000-0  62186-4 0  9994
2 44888  97.8574  81.9554 0122598 214.5384 144.7838 15.11327383 55188
OBJECT L                
1 44889U 19093L   20354.75618441  .00000310  00000-0  46904-4 0  9996
2 44889  97.9412  68.8904 0016467 143.6488 216.5843 14.80863106 54038
OBJECT M                
1 44890U 19093M   20354.85282555  .00000581  00000-0  71948-4 0  9998
2 44890  97.8939  69.5953 0049016 169.5863 190.6386 14.85765851 54212
OBJECT N                
1 44891U 19093N   20354.76179531  .00000624  00000-0  76911-4 0  9991
2 44891  98.0057  74.8056 0023642 274.7097  85.1392 14.86390138 54224
